CARTOSAT-2D             
1 41948U 17008A   26193.18670848  .00002456  00000+0  11963-3 0  9994
2 41948  97.4098 252.0239 0005695 147.0445 213.1145 15.19269586521375
CARTOSAT-2E             
1 42767U 17036C   26193.20441690  .00002862  00000+0  13906-3 0  9999
2 42767  97.4269 252.5926 0002972 197.8621 162.2510 15.19241985501941
IRIDIUM 113             
1 42803U 17039A   26192.86864658 -.00000032  00000+0 -18363-4 0  9999
2 42803  86.3988 311.8626 0002048  90.9447 269.1983 14.34217016474726
NORSAT 2                
1 42828U 17042D   26192.28514055  .00006187  00000+0  27070-3 0  9998
2 42828  97.4047   5.3526 0008519 333.5830  26.4971 15.22382300491409
TECHNOSAT               
1 42829U 17042E   26192.78247322  .00002304  00000+0  16562-3 0  9995
2 42829  97.4306 349.5090 0017736  14.3873 345.7855 15.05098506490409
FLYING LAPTOP           
1 42831U 17042G   26193.18080456  .00002055  00000+0  16362-3 0  9997
2 42831  97.4789 347.7711 0019827  42.0714 318.2029 15.01300056490200
WNISAT 1R               
1 42835U 17042L   26192.87756639  .00000712  00000+0  58908-4 0  9990
2 42835  97.4825 348.1181 0011261  74.9901 285.2570 15.01854496490214
LEMUR-2-GREENBERG       
1 42837U 17042N   26190.49536315  .00011532  00000+0  37497-3 0  9996
2 42837  97.3831  11.0293 0007135 283.6729  76.3718 15.32031511491802
LEMUR-2-FURIAUS         
1 42840U 17042R   26191.74629141  .00012077  00000+0  40490-3 0  9991
2 42840  97.3778  10.1778 0006359 347.2297  12.8782 15.31036825491817
CORVUS BC2              
1 42846U 17042X   26191.31136565  .00002103  00000+0  14633-3 0  9992
2 42846  97.4090 351.7667 0013871  39.1681 321.0548 15.06442373490548
CORVUS BC1              
1 42847U 17042Y   26192.89740494  .00001341  00000+0  94397-4 0  9998
2 42847  97.4117 354.1218 0011945  12.2872 347.8644 15.06611168490815
VRSS-2                  
1 42954U 17060A   26193.18190977  .00000156  00000+0  26360-4 0  9993
2 42954  97.6508 229.7818 0017690  23.1648 337.0359 14.81233365472150
MOHAMMED VI-A           
1 43005U 17070A   26193.20770419 -.00000211  00000+0 -22681-4 0  9996
2 43005  97.9554 265.1933 0001179  94.1162 266.0183 14.77098596467675
FENGYUN 3D              
1 43010U 17072A   26193.23633947  .00000096  00000+0  67197-4 0  9991
2 43010  99.0136 168.1128 0001720  21.3195 338.8052 14.19744631448540
NOAA 20 (JPSS-1)        
1 43013U 17073A   26193.16493314  .00000012  00000+0  26591-4 0  9990
2 43013  98.7774 132.4062 0001277 127.1465 232.9828 14.19516095448018
MAKERSAT 0              
1 43016U 17073D   26193.12268903  .00011859  00000+0  31444-3 0  9996
2 43016  97.4594  75.8460 0105289 183.1958 176.8625 15.32930037470283
RADFXSAT (FOX-1B)       
1 43017U 17073E   26193.07687024  .00003550  00000+0  15680-3 0  9993
2 43017  97.4678  59.7847 0148086 242.3404 116.2732 15.13035809469156
JILIN-1 04              
1 43022U 17074A   26193.18741161  .00008455  00000+0  19331-3 0  9991
2 43022  97.4872 303.4792 0005258 108.3287 251.8532 15.43078151478120
JILIN-1 05              
1 43023U 17074B   26193.23407900  .00004532  00000+0  13908-3 0  9994
2 43023  97.4878 299.7348 0006316 132.7997 227.3778 15.34254808477849
JILIN-1 06              
1 43024U 17074C   26193.20943091  .00003472  00000+0  10804-3 0  9992
2 43024  97.4804 296.6860 0007902 143.1418 217.0369 15.33974329477679
IRIDIUM 116             
1 43072U 17083C   26192.84327571  .00000083  00000+0  22686-4 0  9990
2 43072  86.3987 311.6942 0002398  99.6192 260.5275 14.34216882447701
IRIDIUM 130             
1 43073U 17083D   26192.81156685  .00000125  00000+0  37408-4 0  9999
2 43073  86.3992 311.9851 0002181 100.5131 259.6311 14.34217059447645
LKW-2                   
1 43080U 17084A   26193.20032729  .00002275  00000+0  89336-4 0  9999
2 43080  97.1184 231.8299 0003478 124.9522 235.2045 15.26662454475501
SUPERVIEW-1 03          
1 43099U 18002A   26193.18698492  .00013131  00000+0  31692-3 0  9996
2 43099  97.3135 277.9991 0047124  91.6395 269.0249 15.40142433472215
CARTOSAT-2F             
1 43111U 18004A   26193.17113707  .00003737  00000+0  18051-3 0  9998
2 43111  97.4782 252.5598 0002460 143.6004 216.5398 15.19258482471129
LKW-3                   
1 43146U 18006A   26193.20872578  .00005020  00000+0  14706-3 0  9990
2 43146  97.6627 354.7715 0002702 189.7075 170.4116 15.35706457472553
ASNARO-2                
1 43152U 18007A   26193.16251779  .00005703  00000+0  24970-3 0  9999
2 43152  97.3970 199.6992 0001980  94.4211 265.7252 15.22422042471214
JILIN-1 07              
1 43159U 18008E   26193.19186670  .00005348  00000+0  15903-3 0  9998
2 43159  97.1766 212.4588 0007053 340.7722  19.3255 15.35132371468835
